{
  "norad_id": 59044,
  "name": "STARLINK-31153",
  "history": [
    {
      "epoch": "2026-03-28T19:26:03.902496",
      "apogee_km": 483.7017445861329,
      "perigee_km": 482.2757282130797,
      "latitude_deg": 24.010434523562946,
      "longitude_deg": 162.13766944012605,
      "semi_major_axis_km": 6861.1257363996065,
      "eccentricity": 0.00010392,
      "inclination_deg": 43.0012,
      "raan_deg": 275.4783,
      "arg_perigee_deg": 257.0791,
      "mean_anomaly_deg": 102.9944,
      "mean_motion_rev_day": 15.27600158
    }
  ]
}